[
    {
        "Altitude(m)": 703452.8701537867,
        "Argument of Periapsis(deg)": 0.0,
        "Eccentricity": 0.0,
        "Inclination(deg)": 45.0,
        "Latitude(deg)": -0.0609455929380735,
        "Longitude(deg)": -59.90875676531033,
        "Mean Anomaly(deg)": -180.0,
        "RAAN(deg)": 220.00000000000003,
        "Satellite Name": "Constellation 1 979",
        "Satellite Number": 979,
        "Semi-Major Axis(m)": 7083131.272910544,
        "Time(s)": 0
    },
    {
        "Altitude(m)": 703458.5157246195,
        "Argument of Periapsis(deg)": 5.994800624540561e-05,
        "Eccentricity": 0.0,
        "Inclination(deg)": 45.0,
        "Latitude(deg)": -0.10416103691869925,
        "Longitude(deg)": -59.87000802372291,
        "Mean Anomaly(deg)": -179.9392988597501,
        "RAAN(deg)": 219.99994341083448,
        "Satellite Name": "Constellation 1 979",
        "Satellite Number": 979,
        "Semi-Major Axis(m)": 7083131.272910544,
        "Time(s)": 1
    },
    {
        "Altitude(m)": 703464.1819195157,
        "Argument of Periapsis(deg)": 0.00011989601249081122,
        "Eccentricity": 0.0,
        "Inclination(deg)": 45.0,
        "Latitude(deg)": -0.1473763519619736,
        "Longitude(deg)": -59.83125923380015,
        "Mean Anomaly(deg)": -179.87859771950025,
        "RAAN(deg)": 219.99988682166887,
        "Satellite Name": "Constellation 1 979",
        "Satellite Number": 979,
        "Semi-Major Axis(m)": 7083131.272910544,
        "Time(s)": 2
    },
    {
        "Altitude(m)": 703469.8687318062,
        "Argument of Periapsis(deg)": 0.00017984401873621686,
        "Eccentricity": 0.0,
        "Inclination(deg)": 45.0,
        "Latitude(deg)": -0.19059151313253248,
        "Longitude(deg)": -59.79251034724494,
        "Mean Anomaly(deg)": -179.81789657925032,
        "RAAN(deg)": 219.9998302325033,
        "Satellite Name": "Constellation 1 979",
        "Satellite Number": 979,
        "Semi-Major Axis(m)": 7083131.272910544,
        "Time(s)": 3
    },
    {
        "Altitude(m)": 703475.5761547149,
        "Argument of Periapsis(deg)": 0.00023979202498162244,
        "Eccentricity": 0.0,
        "Inclination(deg)": 45.0,
        "Latitude(deg)": -0.23380649549490887,
        "Longitude(deg)": -59.753761315760464,
        "Mean Anomaly(deg)": -179.7571954390004,
        "RAAN(deg)": 219.99977364333773,
        "Satellite Name": "Constellation 1 979",
        "Satellite Number": 979,
        "Semi-Major Axis(m)": 7083131.272910544,
        "Time(s)": 4
    },
    {
        "Altitude(m)": 703481.3041813812,
        "Argument of Periapsis(deg)": 0.00029974003122702807,
        "Eccentricity": 0.0,
        "Inclination(deg)": 45.0,
        "Latitude(deg)": -0.2770212741136242,
        "Longitude(deg)": -59.71501209104962,
        "Mean Anomaly(deg)": -179.69649429875054,
        "RAAN(deg)": 219.99971705417218,
        "Satellite Name": "Constellation 1 979",
        "Satellite Number": 979,
        "Semi-Major Axis(m)": 7083131.272910544,
        "Time(s)": 5
    },
    {
        "Altitude(m)": 703487.0528048513,
        "Argument of Periapsis(deg)": 0.00035968803747243373,
        "Eccentricity": 0.0,
        "Inclination(deg)": 45.0,
        "Latitude(deg)": -0.3202358240530791,
        "Longitude(deg)": -59.67626262481509,
        "Mean Anomaly(deg)": -179.6357931585006,
        "RAAN(deg)": 219.99966046500657,
        "Satellite Name": "Constellation 1 979",
        "Satellite Number": 979,
        "Semi-Major Axis(m)": 7083131.272910544,
        "Time(s)": 6
    },
    {
        "Altitude(m)": 703492.8220180705,
        "Argument of Periapsis(deg)": 0.00041963604371783933,
        "Eccentricity": 0.0,
        "Inclination(deg)": 45.0,
        "Latitude(deg)": -0.3634501203773553,
        "Longitude(deg)": -59.637513036856454,
        "Mean Anomaly(deg)": -179.5750920182507,
        "RAAN(deg)": 219.99960387584102,
        "Satellite Name": "Constellation 1 979",
        "Satellite Number": 979,
        "Semi-Major Axis(m)": 7083131.272910544,
        "Time(s)": 7
    },
    {
        "Altitude(m)": 703498.6118138992,
        "Argument of Periapsis(deg)": 0.0004795840499632449,
        "Eccentricity": 0.0,
        "Inclination(deg)": 45.0,
        "Latitude(deg)": -0.4066641381500545,
        "Longitude(deg)": -59.59876294268153,
        "Mean Anomaly(deg)": -179.51439087800077,
        "RAAN(deg)": 219.99954728667544,
        "Satellite Name": "Constellation 1 979",
        "Satellite Number": 979,
        "Semi-Major Axis(m)": 7083131.272910544,
        "Time(s)": 8
    },
    {
        "Altitude(m)": 703504.4221850982,
        "Argument of Periapsis(deg)": 0.0005395320562086505,
        "Eccentricity": 0.0,
        "Inclination(deg)": 45.0,
        "Latitude(deg)": -0.4498778524344025,
        "Longitude(deg)": -59.560012462088984,
        "Mean Anomaly(deg)": -179.45368973775092,
        "RAAN(deg)": 219.99949069750988,
        "Satellite Name": "Constellation 1 979",
        "Satellite Number": 979,
        "Semi-Major Axis(m)": 7083131.272910544,
        "Time(s)": 9
    },
    {
        "Altitude(m)": 703510.253124338,
        "Argument of Periapsis(deg)": 0.0005994800624540561,
        "Eccentricity": 0.0,
        "Inclination(deg)": 45.0,
        "Latitude(deg)": -0.4930912382932186,
        "Longitude(deg)": -59.521261546779606,
        "Mean Anomaly(deg)": -179.39298859750104,
        "RAAN(deg)": 219.99943410834433,
        "Satellite Name": "Constellation 1 979",
        "Satellite Number": 979,
        "Semi-Major Axis(m)": 7083131.272910544,
        "Time(s)": 10
    },
    {
        "Altitude(m)": 703516.1046241934,
        "Argument of Periapsis(deg)": 0.0006594280686994618,
        "Eccentricity": 0.0,
        "Inclination(deg)": 45.0,
        "Latitude(deg)": -0.5363042707887133,
        "Longitude(deg)": -59.48251014845334,
        "Mean Anomaly(deg)": -179.3322874572511,
        "RAAN(deg)": 219.99937751917872,
        "Satellite Name": "Constellation 1 979",
        "Satellite Number": 979,
        "Semi-Major Axis(m)": 7083131.272910544,
        "Time(s)": 11
    },
    {
        "Altitude(m)": 703521.9766771497,
        "Argument of Periapsis(deg)": 0.0007193760749448675,
        "Eccentricity": 0.0,
        "Inclination(deg)": 45.0,
        "Latitude(deg)": -0.5795169249821102,
        "Longitude(deg)": -59.443758218809634,
        "Mean Anomaly(deg)": -179.2715863170012,
        "RAAN(deg)": 219.99932093001317,
        "Satellite Name": "Constellation 1 979",
        "Satellite Number": 979,
        "Semi-Major Axis(m)": 7083131.272910544,
        "Time(s)": 12
    },
    {
        "Altitude(m)": 703527.8692755895,
        "Argument of Periapsis(deg)": 0.000779324081190273,
        "Eccentricity": 0.0,
        "Inclination(deg)": 45.0,
        "Latitude(deg)": -0.6227291759340614,
        "Longitude(deg)": -59.40500570954673,
        "Mean Anomaly(deg)": -179.2108851767513,
        "RAAN(deg)": 219.9992643408476,
        "Satellite Name": "Constellation 1 979",
        "Satellite Number": 979,
        "Semi-Major Axis(m)": 7083131.272910544,
        "Time(s)": 13
    },
    {
        "Altitude(m)": 703533.7824118161,
        "Argument of Periapsis(deg)": 0.0008392720874356787,
        "Eccentricity": 0.0,
        "Inclination(deg)": 45.0,
        "Latitude(deg)": -0.6659409987042505,
        "Longitude(deg)": -59.36625257236173,
        "Mean Anomaly(deg)": -179.1501840365014,
        "RAAN(deg)": 219.99920775168204,
        "Satellite Name": "Constellation 1 979",
        "Satellite Number": 979,
        "Semi-Major Axis(m)": 7083131.272910544,
        "Time(s)": 14
    },
    {
        "Altitude(m)": 703539.7160780254,
        "Argument of Periapsis(deg)": 0.0008992200936810842,
        "Eccentricity": 0.0,
        "Inclination(deg)": 45.0,
        "Latitude(deg)": -0.709152368351447,
        "Longitude(deg)": -59.3274989270479,
        "Mean Anomaly(deg)": -179.08948289625155,
        "RAAN(deg)": 219.99915116251643,
        "Satellite Name": "Constellation 1 979",
        "Satellite Number": 979,
        "Semi-Major Axis(m)": 7083131.272910544,
        "Time(s)": 15
    },
    {
        "Altitude(m)": 703545.6702663273,
        "Argument of Periapsis(deg)": 0.0009591680999264898,
        "Eccentricity": 0.0,
        "Inclination(deg)": 45.0,
        "Latitude(deg)": -0.7523632599331251,
        "Longitude(deg)": -59.28874438910567,
        "Mean Anomaly(deg)": -179.0287817560016,
        "RAAN(deg)": 219.99909457335087,
        "Satellite Name": "Constellation 1 979",
        "Satellite Number": 979,
        "Semi-Major Axis(m)": 7083131.272910544,
        "Time(s)": 16
    },
    {
        "Altitude(m)": 703551.6449687396,
        "Argument of Periapsis(deg)": 0.0010191161061718953,
        "Eccentricity": 0.0,
        "Inclination(deg)": 45.0,
        "Latitude(deg)": -0.7955736485056828,
        "Longitude(deg)": -59.24998907832569,
        "Mean Anomaly(deg)": -178.96808061575172,
        "RAAN(deg)": 219.99903798418532,
        "Satellite Name": "Constellation 1 979",
        "Satellite Number": 979,
        "Semi-Major Axis(m)": 7083131.272910544,
        "Time(s)": 17
    },
    {
        "Altitude(m)": 703557.6401771775,
        "Argument of Periapsis(deg)": 0.001079064112417301,
        "Eccentricity": 0.0,
        "Inclination(deg)": 45.0,
        "Latitude(deg)": -0.8387835091244061,
        "Longitude(deg)": -59.21123294639966,
        "Mean Anomaly(deg)": -178.9073794755018,
        "RAAN(deg)": 219.99898139501974,
        "Satellite Name": "Constellation 1 979",
        "Satellite Number": 979,
        "Semi-Major Axis(m)": 7083131.272910544,
        "Time(s)": 18
    }
]